satname,norad_id,inclination_deg,eccentricity,mean_motion_rev_per_day,perigee_km,apogee_km,l1,l2
STARLINK-1008,44714,53.1572,0.0001157,15.31034192,471.93280866781333,473.5180982395441,1 44714U 19074B   26045.92406960  .00001771  00000+0  70161-4 0  9998,2 44714  53.1572 284.6402 0001157  98.1722 261.9410 15.31034192345389
STARLINK-1012,44718,53.157,0.0001125,15.30191887,474.46828864895724,476.01029831499,1 44718U 19074F   26046.80641747  .00007859  00000+0  27725-3 0  9994,2 44718  53.1570 280.4542 0001125 105.7892 254.3233 15.30191887345516
STARLINK-1017,44723,53.0485,0.0003511,15.22047211,497.25162571661895,502.0812192798985,1 44723U 19074L   26045.96911880  .00025248  00000+0  11006-2 0  9990,2 44723  53.0485 276.1078 0003511 112.4884 247.6484 15.22047211345503
STARLINK-1019,44724,53.0447,0.0008554,15.749597,338.99510818571434,350.4966161863422,1 44724U 19074M   26046.91668981  .00200027  00000+0  12916-2 0  9999,2 44724  53.0447 245.7037 0008554 123.2794   6.8500 15.74959700  6028
STARLINK-1020,44725,53.0822,0.0001138,15.13693535,524.1621574413612,525.7332995255647,1 44725U 19074N   26046.91668981  .00049320  00000+0  27064-2 0  9997,2 44725  53.0822 304.2460 0001138  85.1646 305.8541 15.13693535  5570
STARLINK-1031,44736,53.042,0.0003458,15.81572364,323.6752641132798,328.3118408033606,1 44736U 19074Z   26046.91668981  .00303097  00000+0  14384-2 0  9994,2 44736  53.0420 230.2989 0003458 168.4638 293.4808 15.81572364  5910
STARLINK-1036,44741,53.053,0.000556,15.51290893,409.18017502531075,416.73187046660496,1 44741U 19074AE  26046.67413464  .00097569  00000+0  16218-2 0  9999,2 44741  53.0530 294.7339 0005560 134.5386 225.6077 15.51290893345308
STARLINK-1039,44744,53.0473,0.0006986,15.19685266,501.98123973096153,511.6008612030746,1 44744U 19074AH  26046.72803912  .00049883  00000+0  23061-2 0  9999,2 44744  53.0473 315.8809 0006986 112.3992 247.7744 15.19685266345014
STARLINK-1042,44747,53.0427,0.0002949,15.48641645,418.69381598855307,422.70376933906664,1 44747U 19074AL  26046.78375362  .00028322  00000+0  52750-3 0  9994,2 44747  53.0427 199.7977 0002949 108.9420 251.1907 15.48641645346671
STARLINK-1043,44748,53.0535,0.0002943,15.52161129,408.41958053210965,412.4153236826196,1 44748U 19074AM  26046.13166064  .00026530  00000+0  43699-3 0  9992,2 44748  53.0535 303.2036 0002943  74.3893 285.7440 15.52161129345149
STARLINK-1046,44751,53.0561,0.0007813,15.41886724,435.2137728615726,445.86863942649416,1 44751U 19074AQ  26046.12931082  .00015254  00000+0  36228-3 0  9996,2 44751  53.0561 317.9035 0007813 103.4940 256.6936 15.41886724344937
STARLINK-1047,44752,53.0676,0.0004562,15.3203527,466.61675323525833,472.8647568989818,1 44752U 19074AR  26046.77645102  .00010961  00000+0  36063-3 0  9990,2 44752  53.0676 248.3323 0004562 136.3579 223.7783 15.32035270345986
STARLINK-1048,44753,53.0539,0.0005243,15.5026549,412.3881396892739,419.51241961071446,1 44753U 19074AS  26046.61812792  .00027604  00000+0  48579-3 0  9992,2 44753  53.0539 274.9686 0005243 117.9074 242.2466 15.50265490345572
STARLINK-1053,44758,53.0303,0.0002585,15.82190151,322.51572817462784,325.9808613720252,1 44758U 19074AX  26046.91668981  .00240534  00000+0  11180-2 0  9995,2 44758  53.0303 193.8035 0002585 322.5199 233.3949 15.82190151  6051
STARLINK-1060,44765,53.0244,0.0005168,16.392096,164.5229291388805,171.28891910525272,1 44765U 19074BE  26045.13841613  .07058494  12386-4  56434-3 0  9997,2 44765  53.0244 238.4194 0005168 305.3063 160.2648 16.39209600345945
STARLINK-1063,44768,53.1596,0.0001419,15.30173583,474.3214451030253,476.2664488057708,1 44768U 19074BH  26046.66668981  .00090307  00000+0  30268-2 0  9997,2 44768  53.1596 321.6907 0001419  93.2870 216.2377 15.30173583  5821
STARLINK-1067,44771,53.0545,0.0001344,15.52731186,407.8436625380891,409.6679793283565,1 44771U 19074BL  26046.84220453  .00077473  00000+0  12282-2 0  9994,2 44771  53.0545 309.7944 0001344 109.6695 250.4459 15.52731186345113
STARLINK-1068,44772,53.0517,0.0005595,15.58544069,388.08216649682436,395.6578043134941,1 44772U 19074BM  26046.85317695  .00089901  00000+0  11472-2 0  9990,2 44772  53.0517 286.3996 0005595 134.3508 225.7963 15.58544069345438
STARLINK-1112,44925,53.0413,0.0003005,15.92468077,293.37327866641317,297.3840615841582,1 44925U 20001M   26046.91668981  .00357512  59943-4  10359-2 0  9990,2 44925  53.0413 353.5515 0003005  95.9005  92.1735 15.92468077  6063
STARLINK-1114,44927,53.0515,0.0007934,15.46412139,421.83255929566803,432.6313187280921,1 44927U 20001P   26046.73076916  .00082604  00000+0  16323-2 0  9992,2 44927  53.0515  74.4496 0007934  32.1874 327.9615 15.46412139336695
STARLINK-1123,44930,53.0528,0.0001338,15.06403097,546.2754557285452,548.128676462632,1 44930U 20001S   26046.62985479  .00003516  00000+0  25479-3 0  9995,2 44930  53.0528  85.6503 0001338  99.7440 260.3700 15.06403097336522
STARLINK-1144,44933,53.0203,0.0006376,16.42239465,155.6833692908067,164.02061285222044,1 44933U 20001V   26045.06249604  .09131498  12349-4  49644-3 0  9992,2 44933  53.0203 330.3242 0006376 224.4044 135.6493 16.42239465339296
STARLINK-1094,44941,53.1605,0.0001358,15.30203507,474.27391438043196,476.1352819584954,1 44941U 20001AD  26046.34581638  .00000287  00000+0  21812-4 0  9995,2 44941  53.1605  63.3470 0001358  92.5074 267.6082 15.30203507336819
STARLINK-1122,44949,53.1598,0.0001532,15.30193482,474.18459454297044,476.28446758008795,1 44949U 20001AM  26046.66668981 -.00012542  00000+0 -41212-3 0  9999,2 44949  53.1598  61.9032 0001532  65.9736 117.4758 15.30193482  5757
STARLINK-1080,44961,53.0544,0.0008715,15.4353463,429.7489301149708,441.6254256570255,1 44961U 20001AZ  26046.43126801  .00027735  00000+0  61480-3 0  9995,2 44961  53.0544  34.2281 0008715  34.0035 326.1527 15.43534630337231
STARLINK-1090,44968,53.0552,0.0001498,15.06411765,546.1380883299034,548.2129119549454,1 44968U 20001BG  26046.26861868  .00002791  00000+0  20614-3 0  9991,2 44968  53.0552  47.2712 0001498  89.2046 270.9115 15.06411765337034
STARLINK-1132,45044,53.1588,0.00055,15.40630191,440.49591840015455,448.00054215346063,1 45044U 20006A   26046.29928435  .00134339  00000+0  32003-2 0  9997,2 45044  53.1588 359.8734 0005500 104.3594 255.8022 15.40630191333478
STARLINK-1131,45047,53.1561,0.0001368,15.29370612,476.75471407533405,478.63046905158535,1 45047U 20006D   26046.26259450  .00001695  00000+0  71046-4 0  9991,2 45047  53.1561  25.1473 0001368  91.2063 268.9094 15.29370612333119
STARLINK-1134,45048,53.0361,0.0009951,15.41495738,434.907739465335,448.4805674269228,1 45048U 20006E   26046.20739693  .00104321  00000+0  24236-2 0  9995,2 45048  53.0361 345.0106 0009951 101.8896 258.3224 15.41495738333672
STARLINK-1156,45054,53.1569,0.0001405,15.29362839,476.75257409826463,478.67906874108485,1 45054U 20006L   26046.22041436  .00003446  00000+0  13167-3 0  9993,2 45054  53.1569  25.3255 0001405  91.6890 268.4271 15.29362839333102
STARLINK-1159,45057,53.05,0.0006351,15.75580542,338.71110777305694,347.2482701914014,1 45057U 20006P   26046.91668981  .00139100  00000+0  88252-3 0  9996,2 45057  53.0500 343.8197 0006351  73.5498 288.3299 15.75580542  6023
STARLINK-1166,45060,53.0546,0.0006116,15.4286643,433.485830583817,441.82290658587044,1 45060U 20006S   26046.82616219  .00073785  00000+0  16483-2 0  9999,2 45060  53.0546  16.6296 0006116  68.6080 291.5577 15.42866430333286
STARLINK-1169,45061,53.1564,0.0001475,15.2936574,476.69591465408394,478.71838867882525,1 45061U 20006T   26046.32175792  .00003203  00000+0  12325-3 0  9991,2 45061  53.1564  24.8901 0001475  87.9805 272.1364 15.29365740333129
STARLINK-1171,45062,53.0483,0.0002423,15.53226721,405.66812175820814,408.9563504580274,1 45062U 20006U   26046.91668981  .00070168  00000+0  10943-2 0  9991,2 45062  53.0483 354.8419 0002423 325.0735 306.0184 15.53226721  5979
STARLINK-1133,45064,53.1623,0.000213,15.3012947,473.96585852714725,476.8854762234487,1 45064U 20006W   26046.26251579  .00017516  00000+0  60342-3 0  9999,2 45064  53.1623   1.9769 0002130  75.7694 284.3543 15.30129470333445
STARLINK-1167,45071,53.1623,0.0001462,15.29361767,476.71669899012613,478.7213512918779,1 45071U 20006AD  26046.14743287  .00005845  00000+0  21470-3 0  9997,2 45071  53.1623   2.4264 0001462  69.4190 290.6967 15.29361767333420
STARLINK-1168,45072,53.1606,0.0001572,15.29365207,476.6310056049324,478.78648350702133,1 45072U 20006AE  26046.28793314  .00007424  00000+0  26926-3 0  9995,2 45072  53.1606   1.8341 0001572  94.7272 265.3908 15.29365207333444
STARLINK-1172,45074,53.1593,0.0001779,15.30261062,473.8135764569706,476.25193425592624,1 45074U 20006AG  26046.82713199  .00031703  00000+0  10759-2 0  9993,2 45074  53.1593 359.3726 0001779 105.7099 254.4098 15.30261062333522
STARLINK-1153,45080,53.1613,0.0001446,15.29358552,476.7372751683015,478.7199915094643,1 45080U 20006AN  26046.19719153 -.00000737  00000+0 -13219-4 0  9997,2 45080  53.1613   2.1130 0001446  79.8436 280.2727 15.29358552333436
STARLINK-1151,45081,53.0531,0.0012764,15.55309734,392.59920762496677,409.90563293705964,1 45081U 20006AP  26046.84741244  .00087562  00000+0  12573-2 0  9995,2 45081  53.0531 346.1104 0012764  73.5220 286.7192 15.55309734333719
STARLINK-1185,45087,53.1346,0.0001539,15.2410395,492.4198762281767,494.53495914593987,1 45087U 20006AV  26046.91668981  .00518174  00000+0  19835-1 0  9990,2 45087  53.1346 343.3613 0001539  87.8709 111.1013 15.24103950  5854
STARLINK-1183,45088,53.129,0.0001484,15.23570288,494.06195503657,496.10192641817775,1 45088U 20006AW  26046.91668981  .00949284  00000+0  36186-1 0  9999,2 45088  53.1290 343.5835 0001484  87.6672 229.1153 15.23570288  5785
STARLINK-1152,45096,53.0413,0.0007462,15.35628595,453.95211983241006,464.1559437282385,1 45096U 20006BE  26046.74907910  .00068250  00000+0  19340-2 0  9996,2 45096  53.0413 309.7386 0007462 115.5183 244.6591 15.35628595334214
